MERIDIAN 9              
1 45254U 20015A   26087.21133409 -.00000011  00000+0  00000+0 0  9995
2 45254  65.5243 327.6147 6884561 279.2662  14.7597  2.00603088 44669
