{
  "norad_id": 45254,
  "name": "MERIDIAN 9",
  "history": [
    {
      "epoch": "2026-03-28T05:04:19.265376",
      "apogee_km": 38461.95951312884,
      "perigee_km": 1895.491520206454,
      "latitude_deg": -55.81085776832493,
      "longitude_deg": 165.68807263998315,
      "semi_major_axis_km": 26556.862516667647,
      "eccentricity": 0.6884561,
      "inclination_deg": 65.5243,
      "raan_deg": 327.6147,
      "arg_perigee_deg": 279.2662,
      "mean_anomaly_deg": 14.7597,
      "mean_motion_rev_day": 2.00603088
    }
  ]
}